{"spkid": "20531944", "covariance": {"data": [["7.898738257136721E-16", "-9.922948031154591E-16", "-1.396102240221634E-13", "1.341412315567143E-13", "-2.18574217912924E-13", "-7.320708005477926E-14"], ["-9.922948031154591E-16", "1.256735824559978E-15", "1.576313829009278E-13", "-1.695244763363141E-13", "2.656262844377055E-13", "9.181064172887156E-14"], ["-1.396102240221634E-13", "1.576313829009278E-13", "1.684822772893505E-10", "-3.082916405034677E-11", "1.706875071354916E-10", "1.440009638013535E-11"], ["1.341412315567143E-13", "-1.695244763363141E-13", "-3.082916405034677E-11", "7.324190541780443E-11", "-9.358199373969812E-11", "2.461676083107216E-12"], ["-2.18574217912924E-13", "2.656262844377055E-13", "1.706875071354916E-10", "-9.358199373969812E-11", "2.362397298547637E-10", "6.59795138715675E-12"], ["-7.320708005477926E-14", "9.181064172887156E-14", "1.440009638013535E-11", "2.461676083107216E-12", "6.59795138715675E-12", "4.038068642275903E-11"]], "elements": [{"label": "e", "name": "e", "sigma": 2.81046940156564e-08, "title": "eccentricity", "value": ".1822152634973148", "units": null}, {"label": "q", "title": "perihelion distance", "value": "1.049784133774071", "units": "au", "sigma": 3.54504700188866e-08, "name": "q"}, {"label": "tp", "name": "tp", "sigma": 1.29800723144885e-05, "title": "time of perihelion passage", "value": "2459275.910830440916", "units": "TDB"}, {"sigma": 8.55814848070565e-06, "name": "om", "value": "303.4157041219876", "title": "longitude of the ascending node", "units": "deg", "label": "node"}, {"label": "peri", "sigma": 1.5370092057459e-05, "name": "w", "value": "18.57077426094039", "title": "argument of perihelion", "units": "deg"}, {"label": "i", "title": "inclination", "value": "10.35063513161009", "units": "deg", "name": "i", "sigma": 6.35457995643764e-06}], "labels": ["e", "q", "tp", "node", "peri", "i"], "epoch": "2459147.5"}, "elements": [{"label": "e", "name": "e", "sigma": "2.8897E-8", "value": ".1828273918181412", "title": "eccentricity", "units": null}, {"title": "semi-major axis", "value": "1.284534649083997", "units": "au", "sigma": "4.4563E-9", "name": "a", "label": "a"}, {"sigma": "3.549E-8", "name": "q", "value": "1.049686529491938", "title": "perihelion distance", "units": "au", "label": "q"}, {"units": "deg", "value": "10.34123533007248", "title": "inclination; angle with respect to x-y ecliptic plane", "name": "i", "sigma": "6.367E-6", "label": "i"}, {"label": "node", "sigma": "8.5366E-6", "name": "om", "units": "deg", "title": "longitude of the ascending node", "value": "303.3246280927881"}, {"label": "peri", "title": "argument of perihelion", "value": "18.85603178065187", "units": "deg", "name": "w", "sigma": "1.5238E-5"}, {"label": "M", "units": "deg", "title": "mean anomaly", "value": "223.0475437763327", "name": "ma", "sigma": "7.3095E-6"}, {"units": "TDB", "title": "time of perihelion passage", "value": "2461402.794691738819", "name": "tp", "sigma": "1.1042E-5", "label": "tp"}, {"title": "sidereal orbital period", "value": "531.7618320553306", "units": "d", "name": "per", "sigma": "2.7672E-6", "label": "period"}, {"label": "n", "name": "n", "sigma": "3.5229E-9", "units": "deg/d", "value": ".6769948091395575", "title": "mean motion"}, {"label": "Q", "name": "ad", "sigma": "5.271E-9", "value": "1.519382768676055", "title": "aphelion distance", "units": "au"}], "epoch": "2461200.5"}